CCSDS_OMM_VERS = 2.0
CREATION_DATE  = 
ORIGINATOR     = 

OBJECT_NAME    = AQUA
OBJECT_ID      = 2002-022A
CENTER_NAME    = EARTH
REF_FRAME      = TEME
TIME_SYSTEM    = UTC
MEAN_ELEMENT_THEORY = SGP/SGP4

EPOCH          = 2026-03-15T07:19:50.087712
MEAN_MOTION    = 14.61991517
ECCENTRICITY   = .0000632
INCLINATION    = 98.4183
RA_OF_ASC_NODE = 41.7730
ARG_OF_PERICENTER = 102.4511
MEAN_ANOMALY   = 4.7130

EPHEMERIS_TYPE = 0
CLASSIFICATION_TYPE = U
NORAD_CAT_ID   = 27424
ELEMENT_SET_NO = 999
REV_AT_EPOCH   = 26955
BSTAR          = .23099495E-3
MEAN_MOTION_DOT = .1109E-4
MEAN_MOTION_DDOT = 0

CCSDS_OMM_VERS = 2.0
CREATION_DATE  = 
ORIGINATOR     = 

OBJECT_NAME    = CZ-4B R/B
OBJECT_ID      = 2002-024C
CENTER_NAME    = EARTH
REF_FRAME      = TEME
TIME_SYSTEM    = UTC
MEAN_ELEMENT_THEORY = SGP/SGP4

EPOCH          = 2026-03-15T03:59:48.951456
MEAN_MOTION    = 14.14548753
ECCENTRICITY   = .00502191
INCLINATION    = 98.8827
RA_OF_ASC_NODE = 127.5453
ARG_OF_PERICENTER = 8.7260
MEAN_ANOMALY   = 57.9077

EPHEMERIS_TYPE = 0
CLASSIFICATION_TYPE = U
NORAD_CAT_ID   = 27432
ELEMENT_SET_NO = 999
REV_AT_EPOCH   = 23001
BSTAR          = .47313594E-4
MEAN_MOTION_DOT = .47E-6
MEAN_MOTION_DDOT = 0

CCSDS_OMM_VERS = 2.0
CREATION_DATE  = 
ORIGINATOR     = 

OBJECT_NAME    = MIDORI II (ADEOS-II)
OBJECT_ID      = 2002-056A
CENTER_NAME    = EARTH
REF_FRAME      = TEME
TIME_SYSTEM    = UTC
MEAN_ELEMENT_THEORY = SGP/SGP4

EPOCH          = 2026-03-15T02:58:38.613792
MEAN_MOTION    = 14.29289736
ECCENTRICITY   = .00013753
INCLINATION    = 98.7776
RA_OF_ASC_NODE = 32.6394
ARG_OF_PERICENTER = 35.8721
MEAN_ANOMALY   = 324.2552

EPHEMERIS_TYPE = 0
CLASSIFICATION_TYPE = U
NORAD_CAT_ID   = 27597
ELEMENT_SET_NO = 999
REV_AT_EPOCH   = 21107
BSTAR          = .1496378E-3
MEAN_MOTION_DOT = .335E-5
MEAN_MOTION_DDOT = 0

CCSDS_OMM_VERS = 2.0
CREATION_DATE  = 
ORIGINATOR     = 

OBJECT_NAME    = H-2A R/B
OBJECT_ID      = 2002-056E
CENTER_NAME    = EARTH
REF_FRAME      = TEME
TIME_SYSTEM    = UTC
MEAN_ELEMENT_THEORY = SGP/SGP4

EPOCH          = 2026-03-14T20:53:18.855168
MEAN_MOTION    = 14.33764480
ECCENTRICITY   = .00707929
INCLINATION    = 98.3210
RA_OF_ASC_NODE = 34.0389
ARG_OF_PERICENTER = 145.3466
MEAN_ANOMALY   = 269.5911

EPHEMERIS_TYPE = 0
CLASSIFICATION_TYPE = U
NORAD_CAT_ID   = 27601
ELEMENT_SET_NO = 999
REV_AT_EPOCH   = 21485
BSTAR          = .11573585E-3
MEAN_MOTION_DOT = .289E-5
MEAN_MOTION_DDOT = 0

CCSDS_OMM_VERS = 2.0
CREATION_DATE  = 
ORIGINATOR     = 

OBJECT_NAME    = CZ-4B R/B
OBJECT_ID      = 2003-049C
CENTER_NAME    = EARTH
REF_FRAME      = TEME
TIME_SYSTEM    = UTC
MEAN_ELEMENT_THEORY = SGP/SGP4

EPOCH          = 2026-03-15T05:29:26.593728
MEAN_MOTION    = 14.55025808
ECCENTRICITY   = .00474813
INCLINATION    = 98.6882
RA_OF_ASC_NODE = 69.3511
ARG_OF_PERICENTER = 213.6828
MEAN_ANOMALY   = 146.1348

EPHEMERIS_TYPE = 0
CLASSIFICATION_TYPE = U
NORAD_CAT_ID   = 28059
ELEMENT_SET_NO = 999
REV_AT_EPOCH   = 18740
BSTAR          = .10090939E-3
MEAN_MOTION_DOT = .389E-5
MEAN_MOTION_DDOT = 0

CCSDS_OMM_VERS = 2.0
CREATION_DATE  = 
ORIGINATOR     = 

OBJECT_NAME    = CZ-2C R/B
OBJECT_ID      = 2004-012C
CENTER_NAME    = EARTH
REF_FRAME      = TEME
TIME_SYSTEM    = UTC
MEAN_ELEMENT_THEORY = SGP/SGP4

EPOCH          = 2026-03-15T04:08:17.391264
MEAN_MOTION    = 15.65228378
ECCENTRICITY   = .00129301
INCLINATION    = 97.7224
RA_OF_ASC_NODE = 139.9868
ARG_OF_PERICENTER = 286.7599
MEAN_ANOMALY   = 73.2241

EPHEMERIS_TYPE = 0
CLASSIFICATION_TYPE = U
NORAD_CAT_ID   = 28222
ELEMENT_SET_NO = 999
REV_AT_EPOCH   = 20513
BSTAR          = .62917558E-3
MEAN_MOTION_DOT = .62754E-3
MEAN_MOTION_DDOT = 0

CCSDS_OMM_VERS = 2.0
CREATION_DATE  = 
ORIGINATOR     = 

OBJECT_NAME    = SL-16 R/B
OBJECT_ID      = 2004-021B
CENTER_NAME    = EARTH
REF_FRAME      = TEME
TIME_SYSTEM    = UTC
MEAN_ELEMENT_THEORY = SGP/SGP4

EPOCH          = 2026-03-15T02:44:11.051520
MEAN_MOTION    = 14.14595714
ECCENTRICITY   = .00043632
INCLINATION    = 70.9997
RA_OF_ASC_NODE = 221.1086
ARG_OF_PERICENTER = 1.8515
MEAN_ANOMALY   = 358.2623

EPHEMERIS_TYPE = 0
CLASSIFICATION_TYPE = U
NORAD_CAT_ID   = 28353
ELEMENT_SET_NO = 999
REV_AT_EPOCH   = 12360
BSTAR          = -.12109176E-3
MEAN_MOTION_DOT = -.28E-5
MEAN_MOTION_DDOT = 0

CCSDS_OMM_VERS = 2.0
CREATION_DATE  = 
ORIGINATOR     = 

OBJECT_NAME    = CZ-4B R/B
OBJECT_ID      = 2004-035C
CENTER_NAME    = EARTH
REF_FRAME      = TEME
TIME_SYSTEM    = UTC
MEAN_ELEMENT_THEORY = SGP/SGP4

EPOCH          = 2026-03-15T01:53:38.764896
MEAN_MOTION    = 15.29169132
ECCENTRICITY   = .00304579
INCLINATION    = 97.3498
RA_OF_ASC_NODE = 108.2572
ARG_OF_PERICENTER = 311.6192
MEAN_ANOMALY   = 48.2439

EPHEMERIS_TYPE = 0
CLASSIFICATION_TYPE = U
NORAD_CAT_ID   = 28415
ELEMENT_SET_NO = 999
REV_AT_EPOCH   = 18073
BSTAR          = .35594002E-3
MEAN_MOTION_DOT = .10143E-3
MEAN_MOTION_DDOT = 0

CCSDS_OMM_VERS = 2.0
CREATION_DATE  = 
ORIGINATOR     = 

OBJECT_NAME    = CZ-2C R/B
OBJECT_ID      = 2004-046B
CENTER_NAME    = EARTH
REF_FRAME      = TEME
TIME_SYSTEM    = UTC
MEAN_ELEMENT_THEORY = SGP/SGP4

EPOCH          = 2026-03-15T05:38:50.688960
MEAN_MOTION    = 14.26994110
ECCENTRICITY   = .01401823
INCLINATION    = 98.1981
RA_OF_ASC_NODE = 348.8740
ARG_OF_PERICENTER = 138.1067
MEAN_ANOMALY   = 223.0944

EPHEMERIS_TYPE = 0
CLASSIFICATION_TYPE = U
NORAD_CAT_ID   = 28480
ELEMENT_SET_NO = 999
REV_AT_EPOCH   = 10929
BSTAR          = .59777707E-4
MEAN_MOTION_DOT = .121E-5
MEAN_MOTION_DDOT = 0

CCSDS_OMM_VERS = 2.0
CREATION_DATE  = 
ORIGINATOR     = 

OBJECT_NAME    = ARIANE 5 R/B
OBJECT_ID      = 2004-049H
CENTER_NAME    = EARTH
REF_FRAME      = TEME
TIME_SYSTEM    = UTC
MEAN_ELEMENT_THEORY = SGP/SGP4

EPOCH          = 2026-03-15T05:22:51.024288
MEAN_MOTION    = 14.85276591
ECCENTRICITY   = .00835481
INCLINATION    = 98.2635
RA_OF_ASC_NODE = 242.8886
ARG_OF_PERICENTER = 333.9140
MEAN_ANOMALY   = 25.7874

EPHEMERIS_TYPE = 0
CLASSIFICATION_TYPE = U
NORAD_CAT_ID   = 28499
ELEMENT_SET_NO = 999
REV_AT_EPOCH   = 14661
BSTAR          = .93408039E-4
MEAN_MOTION_DOT = .788E-5
MEAN_MOTION_DDOT = 0

CCSDS_OMM_VERS = 2.0
CREATION_DATE  = 
ORIGINATOR     = 

OBJECT_NAME    = CZ-2D R/B
OBJECT_ID      = 2005-024B
CENTER_NAME    = EARTH
REF_FRAME      = TEME
TIME_SYSTEM    = UTC
MEAN_ELEMENT_THEORY = SGP/SGP4

EPOCH          = 2026-03-15T06:55:25.850496
MEAN_MOTION    = 15.60699466
ECCENTRICITY   = .00048337
INCLINATION    = 97.3594
RA_OF_ASC_NODE = 89.6420
ARG_OF_PERICENTER = 32.3198
MEAN_ANOMALY   = 327.8355

EPHEMERIS_TYPE = 0
CLASSIFICATION_TYPE = U
NORAD_CAT_ID   = 28738
ELEMENT_SET_NO = 999
REV_AT_EPOCH   = 14065
BSTAR          = .57775949E-3
MEAN_MOTION_DOT = .48041E-3
MEAN_MOTION_DDOT = 0

CCSDS_OMM_VERS = 2.0
CREATION_DATE  = 
ORIGINATOR     = 

OBJECT_NAME    = ALOS (DAICHI)
OBJECT_ID      = 2006-002A
CENTER_NAME    = EARTH
REF_FRAME      = TEME
TIME_SYSTEM    = UTC
MEAN_ELEMENT_THEORY = SGP/SGP4

EPOCH          = 2026-03-15T03:40:42.735360
MEAN_MOTION    = 14.69829707
ECCENTRICITY   = .00007564
INCLINATION    = 98.1226
RA_OF_ASC_NODE = 30.0815
ARG_OF_PERICENTER = 67.1150
MEAN_ANOMALY   = 293.0135

EPHEMERIS_TYPE = 0
CLASSIFICATION_TYPE = U
NORAD_CAT_ID   = 28931
ELEMENT_SET_NO = 999
REV_AT_EPOCH   = 7428
BSTAR          = .26789969E-3
MEAN_MOTION_DOT = .1551E-4
MEAN_MOTION_DDOT = 0

