AQUA                    
1 27424U 02022A   26074.30544083  .00001109  00000+0  23099-3 0  9997
2 27424  98.4183  41.7730 0000632 102.4511   4.7130 14.61991517269557
CZ-4B R/B               
1 27432U 02024C   26074.16653879  .00000047  00000+0  47314-4 0  9993
2 27432  98.8827 127.5453 0050219   8.7260  57.9077 14.14548753230012
MIDORI II (ADEOS-II)    
1 27597U 02056A   26074.12405803  .00000335  00000+0  14964-3 0  9992
2 27597  98.7776  32.6394 0001375  35.8721 324.2552 14.29289736211070
H-2A R/B                
1 27601U 02056E   26073.87035712  .00000289  00000+0  11574-3 0  9999
2 27601  98.3210  34.0389 0070792 145.3466 269.5911 14.33764480214855
CZ-4B R/B               
1 28059U 03049C   26074.22878002  .00000389  00000+0  10091-3 0  9991
2 28059  98.6882  69.3511 0047481 213.6828 146.1348 14.55025808187401
CZ-2C R/B               
1 28222U 04012C   26074.17242351  .00062754  00000+0  62918-3 0  9999
2 28222  97.7224 139.9868 0012930 286.7599  73.2241 15.65228378205131
SL-16 R/B               
1 28353U 04021B   26074.11401680 -.00000280  00000+0 -12109-3 0  9995
2 28353  70.9997 221.1086 0004363   1.8515 358.2623 14.14595714123602
CZ-4B R/B               
1 28415U 04035C   26074.07892089  .00010143  00000+0  35594-3 0  9991
2 28415  97.3498 108.2572 0030457 311.6192  48.2439 15.29169132180737
CZ-2C R/B               
1 28480U 04046B   26074.23530890  .00000121  00000+0  59778-4 0  9998
2 28480  98.1981 348.8740 0140182 138.1067 223.0944 14.26994110109298
ARIANE 5 R/B            
1 28499U 04049H   26074.22420167  .00000788  00000+0  93408-4 0  9992
2 28499  98.2635 242.8886 0083548 333.9140  25.7874 14.85276591146615
CZ-2D R/B               
1 28738U 05024B   26074.28849364  .00048041  00000+0  57776-3 0  9993
2 28738  97.3594  89.6420 0004833  32.3198 327.8355 15.60699466140651
ALOS (DAICHI)           
1 28931U 06002A   26074.15327240  .00001551  00000+0  26790-3 0  9992
2 28931  98.1226  30.0815 0000756  67.1150 293.0135 14.69829707 74285
